OPS 6582 (TRANSIT 5B-5) 
1 00965U 64083D   25363.78549284  .00000083  00000+0  10265-3 0  9994
2 00965  90.0663 201.7189 0043082  54.8782 315.7017 13.56993112 20641
LES-1                   
1 01002U 65008C   25363.22714626  .00000004  00000+0 -52129-3 0  9997
2 01002  32.1437  87.3314 0015622  17.4496 342.6536  9.88354797199376
SOLRAD 7B               
1 01291U 65016D   25363.74374441  .00000039  00000+0  67461-4 0  9993
2 01291  70.0774 236.4987 0021972 336.3171  23.6921 13.94949742 93078
SECOR 4 (EGRS 4)        
1 01315U 65027B   25363.83293006  .00000030  00000+0  85779-4 0  9992
2 01315  90.2435  11.7268 0029442 283.4148 196.5528 12.92662699865042
TIROS 10                
1 01430U 65051A   25363.82652619  .00000375  00000+0  12715-3 0  9996
2 01430  98.4862 119.1113 0054539 226.7535 132.9095 14.41540698171516
ALOUETTE 2              
1 01804U 65098A   25363.17170214  .00001207  00000+0  39643-3 0  9990
2 01804  79.8006  61.2855 1331186 217.1945 132.9313 12.28146916658409
OV3-3                   
1 02389U 66070A   25363.80968925  .00022055  00000+0  10161-2 0  9991
2 02389  81.3277 119.9311 1033156 235.6742 114.2412 13.40258742576239
SECOR 7 (EGRS 7)        
1 02411U 66077B   25362.73565437 -.00000013  00000+0 -73363-2 0  9991
2 02411  90.3373 275.4516 0011262 227.8840 132.1054  8.59615407862735
ERS 15                  
1 02412U 66077C   25362.74536585  .00000002  00000+0  00000+0 0  9996
2 02412  90.3384 275.2452 0006566 238.1822 121.8391  8.59078784375820
ISIS 1                  
1 03669U 69009A   25363.43519162  .00000461  00000+0  33088-3 0  9993
2 03669  88.4497 162.9703 1707212 230.9586 112.6973 11.30363871340590
SECOR 13 (EGRS 13)      
1 03891U 69037B   25363.53461696 -.00000018  00000+0  42730-4 0  9994
2 03891  99.6734 237.1501 0038948 308.5983 117.1676 13.42968383778983
ATS 5                   
1 04068U 69069A   25363.58994083  .00000024  00000+0  00000+0 0  9997
2 04068   0.4120 234.0192 0006598  40.5789 293.4377  0.99488002 44631
OPS 7613 (P/L 4)        
1 04237U 69082E   25363.71838730  .00000071  00000+0  90627-4 0  9992
2 04237  70.0155 105.9131 0021164 343.1097 125.6291 13.95962484862651
OPS 7613 (P/L 1)        
1 04256U 69082B   25363.30585850  .00000202  00000+0  17565-3 0  9995
2 04256  70.0105 329.9472 0022610 284.8501  75.0102 13.99137605866703
SHINSEI (MS-F2)         
1 05485U 71080A   25363.43079485  .00000027  00000+0  19592-4 0  9995
2 05485  32.0538 117.6641 0639837 356.6181   3.0218 12.74248604527597
PROSPERO (BLACK ARROW)  
1 05580U 71093A   25363.73295017  .00001557  00000+0  33270-3 0  9996
2 05580  82.0385  79.5328 0502603 353.0651   6.3729 14.01175452724795
OPS 7898 (P/L 2)        
1 05680U 71110C   25363.64210808  .00000024  00000+0  78375-4 0  9996
2 05680  69.9903 352.8078 0007245 359.5907   0.5180 13.74740930324917
NOAA 2 (ITOS-D)         
1 06235U 72082A   25363.65829580 -.00000014  00000+0  20781-3 0  9993
2 06235 102.0186  15.3083 0004228 133.6380 340.0659 12.53209102433716
OSCAR 7 (AO-7)          
1 07530U 74089B   25363.58485948 -.00000024  00000+0  13809-3 0  9993
2 07530 101.9965  10.0293 0012407  94.9555  22.0732 12.53694572339267
TIROS N                 
1 11060U 78096A   25363.80885281  .00000275  00000+0  15065-3 0  9990
2 11060  98.4692  27.4142 0010675  19.5540 340.6044 14.19300218654725
PHASE 3B (AO-10)        
1 14129U 83058B   25358.05507960 -.00000157  00000+0  00000+0 0  9998
2 14129  26.0324 249.2446 6064001  66.7970 344.3044  2.05872852291888
HILAT                   
1 14154U 83063A   25363.40714071  .00000719  00000+0  22777-3 0  9992
2 14154  82.0249 318.8618 0040862  85.1463  29.8664 14.38555887223178
UOSAT 2 (UO-11)         
1 14781U 84021B   25363.78176493  .00003098  00000+0  32515-3 0  9998
2 14781  97.7832 326.5481 0008547  34.6396 325.5377 14.90205718231895
NOAA 9                  
1 15427U 84123A   25363.83490894  .00000213  00000+0  12913-3 0  9995
2 15427  99.1143  21.4227 0015553 108.6637  64.0342 14.17009717119430
GEOSAT                  
1 15595U 85021A   25363.77664640  .00000345  00000+0  15288-3 0  9998
2 15595 108.0463  88.8619 0002100 276.9391  83.1512 14.39846246138389
EUTELSAT 1-F4 (ECS 4)   
1 18351U 87078B   25363.64948123 -.00000102  00000+0  00000+0 0  9996
2 18351  13.9492 343.3109 0009344  15.6305 170.9760  0.98689876125088
PACSAT (AO-16)          
1 20439U 90005D   25363.62097250  .00000232  00000+0  10017-3 0  9990
2 20439  98.8728  30.1538 0010799  14.9827 102.4811 14.33867573877634
LUSAT (LO-19)           
1 20442U 90005G   25363.78004883  .00000258  00000+0  10916-3 0  9997
2 20442  98.8955  15.8277 0011289 348.2591  11.8327 14.34052378878115
IRS-1B                  
1 21688U 91061A   25363.84329609 -.00000151  00000+0 -73611-4 0  9992
2 21688  99.4102   2.5762 0025013 103.3731 332.1279 13.97841673644834
COSMOS 2197             
1 22034U 92042A   25363.00331816  .00000054  00000+0  23557-3 0  9992
2 22034  82.5955 337.6942 0011809 305.5702 116.4126 12.64245149543788
PEGASUS R/B             
1 22491U 93009C   25362.53438454  .00001240  00000+0  22026-3 0  9994
2 22491  24.9775  83.6879 0044555  66.8212 293.6985 14.57643332744705
EYESAT A (AO-27)        
1 22825U 93061C   25363.78108191  .00000196  00000+0  91600-4 0  9997
2 22825  98.7122  66.0869 0007553 232.9785 127.0707 14.30883510682778
ITAMSAT (IO-26)         
1 22826U 93061D   25363.67086631  .00000225  00000+0  10185-3 0  9991
2 22826  98.7072  65.8773 0008278 215.7338 144.3291 14.31304967683060
RADIO ROSTO (RS-15)     
1 23439U 94085A   25363.89721295 -.00000077  00000+0 -98302-3 0  9999
2 23439  64.8135 217.0035 0150353  35.2781 325.7983 11.27583164276810
JAS-2 (FO-29)           
1 24278U 96046B   25363.48284838  .00000014  00000+0  49111-4 0  9996
2 24278  98.5452 230.3696 0349941 176.5135 183.8567 13.53263615450210
FORTE                   
1 24920U 97047A   25363.50068582  .00000330  00000+0  15631-3 0  9991
2 24920  69.9537  37.2698 0020543 157.7282 202.4737 14.27850237474468
NOAA 15                 
1 25338U 98030A   25363.79673661  .00000237  00000+0  11458-3 0  9998
2 25338  98.5208  23.8941 0011240 121.0894 239.1391 14.27078480437132
TECHSAT 1B (GO-32)      
1 25397U 98043D   25363.49542435  .00000161  00000+0  89901-4 0  9993
2 25397  98.9937 347.0955 0001461  28.3905 331.7352 14.24382234427173
ISS (ZARYA)             
1 25544U 98067A   25363.50072365  .00018472  00000+0  33150-3 0  9993
2 25544  51.6323  59.4638 0003290 318.5670  41.5069 15.49944447545450
ORSTED                  
1 25635U 99008B   25363.82703242  .00001669  00000+0  37943-3 0  9994
2 25635  96.4747 304.8740 0132756  10.4893 349.9028 14.51529772417397
LANDSAT 7               
1 25682U 99020A   25363.81290779  .00000824  00000+0  16677-3 0  9998
2 25682  97.8589  10.2313 0001070  89.5378  83.5662 14.63717995421064
ORBCOMM FM36            
1 25984U 99065E   25363.08637159  .00001497  00000+0  52910-3 0  9995
2 25984  45.0383 246.8578 0001879 210.0055 150.0687 14.38756568362484
DMSP 5D-3 F15 (USA 147) 
1 25991U 99067A   25363.84242161  .00000229  00000+0  13545-3 0  9997
2 25991  99.0193  35.1012 0010802 122.3054  50.9200 14.17483704346658
OPAL (OO-38)            
1 26063U 00004C   25363.67444633  .00000257  00000+0  10385-3 0  9990
2 26063 100.1909 264.2867 0036071 153.2482 207.0570 14.37883228358920
IMAGE                   
1 26113U 00017A   25363.11046549 -.00000248  00000+0 -64573-2 0  9992
2 26113  94.0514 312.9788 7561586 307.4273   5.2784  1.68665554158635
CLUSTER II-FM7 (SAMBA)  
1 26410U 00041A   25363.52599088  .00004070  00000+0  00000+0 0  9992
2 26410 147.9311  26.9829 8791574 242.7493 359.7110  0.44827990 19558
CLUSTER II-FM8 (TANGO)  
1 26464U 00045B   25364.52569444  .00004394  00000+0  00000+0 0  9998
2 26464 148.2486  27.7718 8797827 243.4065 359.6452  0.44418754 19552
MEGSAT-1                
1 26546U 00057B   25363.82322184  .00006149  00000+0  44817-3 0  9990
2 26546  64.5503 251.3428 0033918 300.6939  59.0836 15.04164588372170
PHASE 3D (AO-40)        
1 26609U 00072B   25362.47706620 -.00000180  00000+0  00000+0 0  9990
2 26609   9.6959  16.8440 7945839 125.0237 335.2009  1.25587378115365
ODIN                    
1 26702U 01007A   25363.66710000  .00047263  00000+0  77183-3 0  9994
2 26702  97.4196  32.1352 0005245  69.5880 290.5935 15.52415608362958
OMNI-M1                 
1 26857U 01026A   25360.98574825 -.00000024  00000+0  00000+0 0  9996
2 26857  44.9063 284.9323 0017521   5.5326 354.5282  3.92402754198816
PCSAT (NO-44)           
1 26931U 01043C   25363.36052313  .00000346  00000+0  16019-3 0  9993
2 26931  67.0518 323.4952 0007382 268.9907  91.0349 14.31865428266135
PROBA-1                 
1 26958U 01049B   25363.89749557  .00003969  00000+0  26375-3 0  9999
2 26958  97.9593   1.6250 0055548 336.5960  23.2739 15.06562780318128
SPOT 5                  
1 27421U 02021A   25363.68583690  .00000661  00000+0  14821-3 0  9996
2 27421  98.0102  44.8670 0131192  83.6662 277.9459 14.54569979238202
FENGYUN 1D              
1 27431U 02024B   25363.71804145  .00000121  00000+0  93719-4 0  9990
2 27431  98.9792  49.6160 0015346   3.3843 356.7428 14.10192956215594
SAUDISAT 1C (SO-50)     
1 27607U 02058C   25363.19838554  .00003121  00000+0  38855-3 0  9997
2 27607  64.5542 294.7269 0072910 293.5148  65.8309 14.82467479239254
CORIOLIS                
1 27640U 03001A   25363.72555251  .00000233  00000+0  13034-3 0  9995
2 27640  98.7142   8.1942 0013724 345.4595  14.6184 14.19879601190176
CUTE-1 (CO-55)          
1 27844U 03031E   25363.59177093  .00000568  00000+0  26553-3 0  9994
2 27844  98.6762   9.2773 0008913 323.5075  36.5496 14.24194973167538
CUBESAT XI-IV (CO-57)   
1 27848U 03031J   25363.49619430  .00000464  00000+0  22323-3 0  9999
2 27848  98.6793   9.0317 0009120 342.8564  17.2306 14.23500498167231
